ONEWEB-0443             
1 51637U 22012R   26058.19252568  .00000007  00000+0 -14585-4 0  9992
2 51637  87.9126  27.7242 0001553  79.0808 281.0498 13.17650047199237
ONEWEB-0446             
1 51640U 22012U   26058.29226809  .00000678  00000+0  19044-2 0  9992
2 51640  87.8757  58.1722 0002027  87.8111 272.3249 13.10373097194931
ONEWEB-0452             
1 51644U 22012Y   26057.87191442  .00000018  00000+0  12516-4 0  9990
2 51644  87.9127  27.7880 0001613  77.3324 282.7987 13.17648236199143
ONEWEB-0458             
1 51648U 22012AC  26058.23416336  .00000037  00000+0  70746-4 0  9997
2 51648  87.8759  58.1516 0001704  85.9977 274.1345 13.10369467194902
ONEWEB-0468             
1 51652U 22012AG  26058.23746666 -.00000374  00000+0 -11085-2 0  9999
2 51652  87.8758  58.1745 0001625  97.5917 262.5395 13.10370005194901
ONEWEB-0490             
1 54113U 22138A   26058.12441404 -.00000040  00000+0 -13325-3 0  9993
2 54113  87.9248 326.8846 0001717  84.2138 275.9191 13.19725241162315
ONEWEB-0497             
1 54116U 22138D   26058.21602372  .00000017  00000+0  10891-4 0  9997
2 54116  87.9239 326.8677 0001718  80.7579 279.3748 13.19725631162309
ONEWEB-0502             
1 54120U 22138H   26058.21760414  .00000049  00000+0  90092-4 0  9990
2 54120  87.9252 326.8513 0001587  82.7970 277.3343 13.19725524162321
ONEWEB-0506             
1 54124U 22138M   26058.24130368  .00000073  00000+0  14925-3 0  9993
2 54124  87.9252 326.8545 0001517  87.9099 272.2208 13.19725914162307
ONEWEB-0509             
1 54127U 22138Q   26058.23338788 -.00000156  00000+0 -42243-3 0  9999
2 54127  87.9257 326.8557 0001755  79.5508 280.5822 13.19725362162305
ONEWEB-0513             
1 54131U 22138U   26058.19710987 -.00000011  00000+0 -60290-4 0  9997
2 54131  87.9267 326.8367 0001199  74.9086 285.2179 13.20261884162204
ONEWEB-0516             
1 54134U 22138X   26058.21286678  .00000031  00000+0  44481-4 0  9992
2 54134  87.9243 326.8803 0001829  81.9580 278.1760 13.19725353162327
ONEWEB-0520             
1 54138U 22138AB  26058.19549209 -.00000037  00000+0 -12391-3 0  9997
2 54138  87.9245 326.8711 0001650  87.3593 272.7729 13.19725273162312
ONEWEB-0524             
1 54142U 22138AF  26058.17209170  .00000087  00000+0  18209-3 0  9997
2 54142  87.9180 296.4035 0002547  87.1548 272.9877 13.20770413164787
