
    {
      "objectName": "ONEWEB-0443",
      "objectId": "2022-012R",
      "noradId": 51637,
      "epochUtc": "2026-02-27T04:37:14.218752",
      "meanMotionRevPerDay": 13.17650047,
      "eccentricity": 0.00015535,
      "inclinationDeg": 87.9126,
      "raanDeg": 27.7242,
      "argPerigeeDeg": 79.0808,
      "meanAnomalyDeg": 281.0498,
      "bstar": -0.000014584989,
      "meanMotionDot": 7e-8,
      "meanMotionDdot": 0,
      "elementSetNo": 999,
      "revAtEpoch": 19923
    },
    {
      "objectName": "ONEWEB-0446",
      "objectId": "2022-012U",
      "noradId": 51640,
      "epochUtc": "2026-02-27T07:00:51.962976",
      "meanMotionRevPerDay": 13.10373097,
      "eccentricity": 0.00020274,
      "inclinationDeg": 87.8757,
      "raanDeg": 58.1722,
      "argPerigeeDeg": 87.8111,
      "meanAnomalyDeg": 272.3249,
      "bstar": 0.001904401,
      "meanMotionDot": 0.00000678,
      "meanMotionDdot": 0,
      "elementSetNo": 999,
      "revAtEpoch": 19493
    },
    {
      "objectName": "ONEWEB-0452",
      "objectId": "2022-012Y",
      "noradId": 51644,
      "epochUtc": "2026-02-26T20:55:33.405888",
      "meanMotionRevPerDay": 13.17648236,
      "eccentricity": 0.0001613,
      "inclinationDeg": 87.9127,
      "raanDeg": 27.788,
      "argPerigeeDeg": 77.3324,
      "meanAnomalyDeg": 282.7987,
      "bstar": 0.000012516,
      "meanMotionDot": 1.8e-7,
      "meanMotionDdot": 0,
      "elementSetNo": 999,
      "revAtEpoch": 19914
    },
    {
      "objectName": "ONEWEB-0458",
      "objectId": "2022-012AC",
      "noradId": 51648,
      "epochUtc": "2026-02-27T05:37:11.714304",
      "meanMotionRevPerDay": 13.10369467,
      "eccentricity": 0.00017042,
      "inclinationDeg": 87.8759,
      "raanDeg": 58.1516,
      "argPerigeeDeg": 85.9977,
      "meanAnomalyDeg": 274.1345,
      "bstar": 0.00007074639,
      "meanMotionDot": 3.7e-7,
      "meanMotionDdot": 0,
      "elementSetNo": 999,
      "revAtEpoch": 19490
    },
    {
      "objectName": "ONEWEB-0468",
      "objectId": "2022-012AG",
      "noradId": 51652,
      "epochUtc": "2026-02-27T05:41:57.119424",
      "meanMotionRevPerDay": 13.10370005,
      "eccentricity": 0.00016251,
      "inclinationDeg": 87.8758,
      "raanDeg": 58.1745,
      "argPerigeeDeg": 97.5917,
      "meanAnomalyDeg": 262.5395,
      "bstar": -0.0011084741,
      "meanMotionDot": -0.00000374,
      "meanMotionDdot": 0,
      "elementSetNo": 999,
      "revAtEpoch": 19490
    },
    {
      "objectName": "ONEWEB-0490",
      "objectId": "2022-138A",
      "noradId": 54113,
      "epochUtc": "2026-02-27T02:59:09.373056",
      "meanMotionRevPerDay": 13.19725241,
      "eccentricity": 0.00017174,
      "inclinationDeg": 87.9248,
      "raanDeg": 326.8846,
      "argPerigeeDeg": 84.2138,
      "meanAnomalyDeg": 275.9191,
      "bstar": -0.00013325298,
      "meanMotionDot": -4e-7,
      "meanMotionDdot": 0,
      "elementSetNo": 999,
      "revAtEpoch": 16231
    },
    {
      "objectName": "ONEWEB-0497",
      "objectId": "2022-138D",
      "noradId": 54116,
      "epochUtc": "2026-02-27T05:11:04.449408",
      "meanMotionRevPerDay": 13.19725631,
      "eccentricity": 0.00017183,
      "inclinationDeg": 87.9239,
      "raanDeg": 326.8677,
      "argPerigeeDeg": 80.7579,
      "meanAnomalyDeg": 279.3748,
      "bstar": 0.000010891009,
      "meanMotionDot": 1.7e-7,
      "meanMotionDdot": 0,
      "elementSetNo": 999,
      "revAtEpoch": 16230
    },
    {
      "objectName": "ONEWEB-0502",
      "objectId": "2022-138H",
      "noradId": 54120,
      "epochUtc": "2026-02-27T05:13:20.997696",
      "meanMotionRevPerDay": 13.19725524,
      "eccentricity": 0.00015874,
      "inclinationDeg": 87.9252,
      "raanDeg": 326.8513,
      "argPerigeeDeg": 82.797,
      "meanAnomalyDeg": 277.3343,
      "bstar": 0.000090092376,
      "meanMotionDot": 4.9e-7,
      "meanMotionDdot": 0,
      "elementSetNo": 999,
      "revAtEpoch": 16232
    },
    {
      "objectName": "ONEWEB-0506",
      "objectId": "2022-138M",
      "noradId": 54124,
      "epochUtc": "2026-02-27T05:47:28.637952",
      "meanMotionRevPerDay": 13.19725914,
      "eccentricity": 0.00015173,
      "inclinationDeg": 87.9252,
      "raanDeg": 326.8545,
      "argPerigeeDeg": 87.9099,
      "meanAnomalyDeg": 272.2208,
      "bstar": 0.00014924685,
      "meanMotionDot": 7.3e-7,
      "meanMotionDdot": 0,
      "elementSetNo": 999,
      "revAtEpoch": 16230
    },
    {
      "objectName": "ONEWEB-0509",
      "objectId": "2022-138Q",
      "noradId": 54127,
      "epochUtc": "2026-02-27T05:36:04.712832",
      "meanMotionRevPerDay": 13.19725362,
      "eccentricity": 0.00017551,
      "inclinationDeg": 87.9257,
      "raanDeg": 326.8557,
      "argPerigeeDeg": 79.5508,
      "meanAnomalyDeg": 280.5822,
      "bstar": -0.00042243101,
      "meanMotionDot": -0.00000156,
      "meanMotionDdot": 0,
      "elementSetNo": 999,
      "revAtEpoch": 16230
    },
    {
      "objectName": "ONEWEB-0513",
      "objectId": "2022-138U",
      "noradId": 54131,
      "epochUtc": "2026-02-27T04:43:50.292768",
      "meanMotionRevPerDay": 13.20261884,
      "eccentricity": 0.00011998,
      "inclinationDeg": 87.9267,
      "raanDeg": 326.8367,
      "argPerigeeDeg": 74.9086,
      "meanAnomalyDeg": 285.2179,
      "bstar": -0.000060289605,
      "meanMotionDot": -1.1e-7,
      "meanMotionDdot": 0,
      "elementSetNo": 999,
      "revAtEpoch": 16220
    },
    {
      "objectName": "ONEWEB-0516",
      "objectId": "2022-138X",
      "noradId": 54134,
      "epochUtc": "2026-02-27T05:06:31.689792",
      "meanMotionRevPerDay": 13.19725353,
      "eccentricity": 0.00018292,
      "inclinationDeg": 87.9243,
      "raanDeg": 326.8803,
      "argPerigeeDeg": 81.958,
      "meanAnomalyDeg": 278.176,
      "bstar": 0.000044480754,
      "meanMotionDot": 3.1e-7,
      "meanMotionDdot": 0,
      "elementSetNo": 999,
      "revAtEpoch": 16232
    },
    {
      "objectName": "ONEWEB-0520",
      "objectId": "2022-138AB",
      "noradId": 54138,
      "epochUtc": "2026-02-27T04:41:30.516576",
      "meanMotionRevPerDay": 13.19725273,
      "eccentricity": 0.00016507,
      "inclinationDeg": 87.9245,
      "raanDeg": 326.8711,
      "argPerigeeDeg": 87.3593,
      "meanAnomalyDeg": 272.7729,
      "bstar": -0.00012390785,
      "meanMotionDot": -3.7e-7,
      "meanMotionDdot": 0,
      "elementSetNo": 999,
      "revAtEpoch": 16231
    },
    {
      "objectName": "ONEWEB-0524",
      "objectId": "2022-138AF",
      "noradId": 54142,
      "epochUtc": "2026-02-27T04:07:48.722880",
      "meanMotionRevPerDay": 13.20770413,
      "eccentricity": 0.00025474,
      "inclinationDeg": 87.918,
      "raanDeg": 296.4035,
      "argPerigeeDeg": 87.1548,
      "meanAnomalyDeg": 272.9877,
      "bstar": 0.00018208614,
      "meanMotionDot": 8.7e-7,
      "meanMotionDdot": 0,
      "elementSetNo": 999,
      "revAtEpoch": 16478
    }